1 08820U 76039A   03020.91694234  .00000006  00000-0  10000-3 0  9042
2 08820 109.8341 131.1720 0044314 332.8368  26.9973  6.38664715367659
